     2.100          NAVIGATION                              RINEX VERSION / TYPE
fic2rin                                 03/27/2011 00:18:41 PGM / RUN BY / DATE
                                                            END OF HEADER
 1 11  3 26 10  0  0.0 -.218157656491D-03 -.272848410532D-11  .000000000000D+00
     .620000000000D+02 -.678750000000D+02  .433696636634D-08 -.657688317507D+00
    -.348873436451D-05  .457457476296D-02  .719353556633D-05  .515358603287D+04
     .554400000000D+06 -.186264514923D-08 -.183760661766D+01  .745058059692D-07
     .968079014022D+00  .244406250000D+03  .865728667245D+00 -.805676416800D-08
     .946467995620D-10  .100000000000D+01  .162800000000D+04  .000000000000D+00
     .240000000000D+01  .630000000000D+02 -.195577740669D-07  .620000000000D+02
     .547206000000D+06  .400000000000D+01
 2 11  3 26 10  0  0.0  .327110290527D-03  .216004991671D-11  .000000000000D+00
     .113000000000D+03  .365625000000D+01  .521771733887D-08 -.245186665544D+01
     .189989805222D-06  .101255890913D-01  .771135091782D-05  .515372632790D+04
     .554400000000D+06 -.152736902237D-06  .241466338179D+00 -.178813934326D-06
     .939543431984D+00  .218625000000D+03 -.304640270857D+01 -.820534178542D-08
    -.607168148133D-10  .100000000000D+01  .162800000000D+04  .000000000000D+00
     .240000000000D+01  .000000000000D+00 -.172294676304D-07  .113000000000D+03
     .547206000000D+06  .400000000000D+01
 3 11  3 26 10  0  0.0  .693496782333D-03  .511590769747D-11  .000000000000D+00
     .113000000000D+03 -.242187500000D+02  .529022035891D-08 -.243397671656D+01
    -.143423676491D-05  .140296964673D-01  .837258994579D-05  .515364814377D+04
     .554400000000D+06  .141561031342D-06 -.915304811925D+00 -.763684511185D-07
     .928399239509D+00  .196875000000D+03  .107888801458D+01 -.812783855710D-08
     .395373611755D-09  .100000000000D+01  .162800000000D+04  .000000000000D+00
     .340000000000D+01  .000000000000D+00 -.419095158577D-08  .113000000000D+03
     .547206000000D+06  .400000000000D+01
 4 11  3 26 10  0  0.0  .709635205567D-04  .103455022327D-10  .000000000000D+00
     .610000000000D+02  .421875000000D+01  .533843665303D-08  .614111163921D+00
     .491738319397D-06  .958899769466D-02  .740028917789D-05  .515361340141D+04
     .554400000000D+06 -.670552253723D-07  .258922116620D+00  .126659870148D-06
     .938636930407D+00  .224625000000D+03  .715699425468D+00 -.843213694664D-08
    -.196436753808D-09  .100000000000D+01  .162800000000D+04  .000000000000D+00
     .240000000000D+01  .000000000000D+00 -.605359673500D-08  .610000000000D+02
     .547206000000D+06  .400000000000D+01
 5 11  3 26 10  0  0.0 -.134907662868D-03 -.579802872380D-11  .000000000000D+00
     .820000000000D+02  .423125000000D+02  .461054919074D-08 -.680449170868D+00
     .214390456676D-05  .226075120736D-02  .893138349056D-05  .515363818932D+04
     .554400000000D+06  .353902578354D-07  .130283585024D+01 -.335276126862D-07
     .954693911931D+00  .204500000000D+03  .272569967576D+00 -.805426406386D-08
    -.382515933324D-09  .100000000000D+01  .162800000000D+04  .000000000000D+00
     .240000000000D+01  .000000000000D+00 -.977888703346D-08  .820000000000D+02
     .547206000000D+06  .400000000000D+01
 6 11  3 26 10  0  0.0 -.163372606039D-03 -.119939613796D-09  .000000000000D+00
     .183000000000D+03 -.185000000000D+02  .526593363299D-08 -.357838399257D+00
    -.107474625111D-05  .660844729282D-02  .858679413795D-05  .515364647675D+04
     .554400000000D+06 -.931322574615D-07 -.842157101258D+00 -.147148966789D-06
     .935603827243D+00  .202812500000D+03 -.839493880838D+00 -.837713465557D-08
     .288583449230D-09  .100000000000D+01  .162800000000D+04  .000000000000D+00
     .340000000000D+01  .000000000000D+00 -.465661287308D-08  .183000000000D+03
     .547206000000D+06  .400000000000D+01
 8 11  3 26 10  0  0.0  .760611146688D-05  .000000000000D+00  .000000000000D+00
     .680000000000D+02 -.281250000000D+02  .381587323215D-08  .164871127348D+01
    -.136159360409D-05  .114690697519D-01  .435858964920D-05  .515360620499D+04
     .554400000000D+06 -.633299350739D-07 -.280160451887D+01  .167638063431D-06
     .996025306326D+00  .314937500000D+03 -.308332395648D+01 -.793318759196D-08
    -.129648257513D-09  .100000000000D+01  .162800000000D+04  .000000000000D+00
     .340000000000D+01  .000000000000D+00 -.465661287308D-08  .680000000000D+02
     .547206000000D+06  .400000000000D+01
 9 11  3 26 10  0  0.0  .699250958860D-04  .227373675443D-11  .000000000000D+00
     .540000000000D+02 -.101562500000D+02  .403909681602D-08  .150247471411D+01
    -.838190317154D-06  .171372896293D-01  .424869358540D-05  .515367608452D+04
     .554400000000D+06 -.372529029846D-08 -.290467409908D+01 -.365078449249D-06
     .983337618245D+00  .310593750000D+03  .155871656164D+01 -.808712257540D-08
     .896465912832D-10  .100000000000D+01  .162800000000D+04  .000000000000D+00
     .240000000000D+01  .000000000000D+00 -.558793544769D-08  .540000000000D+02
     .547206000000D+06  .400000000000D+01
10 11  3 26 10  0  0.0 -.698827207088D-04 -.102318153949D-11  .000000000000D+00
     .730000000000D+02  .463125000000D+02  .480055710533D-08 -.415532908339D+00
     .242330133915D-05  .101189053385D-01  .855512917042D-05  .515358976936D+04
     .554400000000D+06  .409781932831D-07  .132688355949D+01  .109896063805D-06
     .949639123276D+00  .207062500000D+03  .702253441115D+00 -.827284459718D-08
    -.381087302387D-09  .100000000000D+01  .162800000000D+04  .000000000000D+00
     .340000000000D+01  .000000000000D+00 -.279396772385D-08  .730000000000D+02
     .547206000000D+06  .400000000000D+01
11 11  3 26 10  0  0.0 -.137534923851D-03 -.318323145621D-11  .000000000000D+00
     .100000000000D+02 -.315625000000D+01  .644955436411D-08  .230046327276D+01
    -.324100255966D-06  .116759217344D-01  .695139169693D-05  .515349628067D+04
     .554400000000D+06 -.707805156708D-07  .748857670642D-02 -.234693288803D-06
     .888390653677D+00  .205718750000D+03  .917299490486D+00 -.874643575273D-08
     .128576784311D-10  .100000000000D+01  .162800000000D+04  .000000000000D+00
     .240000000000D+01  .000000000000D+00 -.116415321827D-07  .100000000000D+02
     .547206000000D+06  .400000000000D+01
13 11  3 26 10  0  0.0  .277604442090D-03 -.147792889038D-11  .000000000000D+00
     .810000000000D+02  .768125000000D+02  .380587281559D-08 -.159215426366D+01
     .403635203838D-05  .464821734931D-02  .590085983276D-05  .515362775230D+04
     .554400000000D+06  .931322574615D-08  .243187774071D+01  .800937414169D-07
     .990209809047D+00  .282906250000D+03  .179723095642D+01 -.786639909567D-08
     .403588239642D-10  .100000000000D+01  .162800000000D+04  .000000000000D+00
     .240000000000D+01  .000000000000D+00 -.111758708954D-07  .810000000000D+02
     .547206000000D+06  .400000000000D+01
14 11  3 26 10  0  0.0  .139950308949D-03  .238742359215D-11  .000000000000D+00
     .490000000000D+02  .559687500000D+02  .389016204086D-08 -.161301544182D+01
     .294670462608D-05  .560230831616D-02  .633858144283D-05  .515364892197D+04
     .554400000000D+06  .167638063431D-06  .240808824967D+01 -.186264514923D-08
     .983267838515D+00  .271125000000D+03 -.209149337464D+01 -.781532553968D-08
    -.442875590403D-10  .100000000000D+01  .162800000000D+04  .000000000000D+00
     .240000000000D+01  .000000000000D+00 -.884756445885D-08  .490000000000D+02
     .547206000000D+06  .400000000000D+01
16 11  3 26 10  0  0.0 -.160481315106D-03 -.284217094304D-11  .000000000000D+00
     .190000000000D+02 -.665000000000D+02  .419017453759D-08 -.158039944187D+00
    -.347569584846D-05  .629599997774D-02  .774674117565D-05  .515377355766D+04
     .554400000000D+06  .856816768646D-07 -.180348349023D+01 -.353902578354D-07
     .975245647810D+00  .234906250000D+03 -.154930443052D+00 -.798176104381D-08
     .113576159474D-09  .100000000000D+01  .162800000000D+04  .000000000000D+00
     .240000000000D+01  .000000000000D+00 -.977888703346D-08  .190000000000D+02
     .547206000000D+06  .400000000000D+01
17 11  3 26 10  0  0.0  .184112228453D-03  .113686837722D-12  .000000000000D+00
     .500000000000D+02 -.255312500000D+02  .468233789531D-08 -.124121157454D+01
    -.124797224998D-05  .622371805366D-02  .852532684803D-05  .515373128510D+04
     .554400000000D+06  .145286321640D-06 -.760397022160D+00  .502914190292D-07
     .961021088214D+00  .214500000000D+03 -.241965530740D+01 -.794283085079D-08
     .326442169055D-09  .100000000000D+01  .162800000000D+04  .000000000000D+00
     .240000000000D+01  .000000000000D+00 -.102445483208D-07  .500000000000D+02
     .547206000000D+06  .400000000000D+01
18 11  3 26 10  0  0.0  .128497835249D-03  .204636307899D-11  .000000000000D+00
     .220000000000D+02  .329687500000D+02  .524914721948D-08  .116256209669D+00
     .184401869774D-05  .120315599488D-01  .807456672192D-05  .515377017975D+04
     .554400000000D+06 -.540167093277D-07  .132225636423D+01  .217929482460D-06
     .933553323729D+00  .210468750000D+03 -.226897466331D+01 -.854821321025D-08
    -.347514475373D-09  .100000000000D+01  .162800000000D+04  .000000000000D+00
     .240000000000D+01  .000000000000D+00 -.107102096081D-07  .220000000000D+02
     .547206000000D+06  .400000000000D+01
19 11  3 26 10  0  0.0 -.123998615891D-03 -.375166564481D-11  .000000000000D+00
     .970000000000D+02 -.137812500000D+02  .474126892145D-08 -.192407766455D+01
    -.901520252228D-06  .712298508734D-02  .870972871780D-05  .515363335991D+04
     .554400000000D+06 -.540167093277D-07 -.706182350461D+00 -.104308128357D-06
     .958583923748D+00  .211843750000D+03 -.103111996057D-01 -.801711965950D-08
     .365729519817D-09  .100000000000D+01  .162800000000D+04  .000000000000D+00
     .240000000000D+01  .000000000000D+00 -.149011611938D-07  .970000000000D+02
     .547206000000D+06  .400000000000D+01
